OBJECT_NAME,OBJECT_ID,EPOCH,MEAN_MOTION,ECCENTRICITY,INCLINATION,RA_OF_ASC_NODE,ARG_OF_PERICENTER,MEAN_ANOMALY,EPHEMERIS_TYPE,CLASSIFICATION_TYPE,NORAD_CAT_ID,ELEMENT_SET_NO,REV_AT_EPOCH,BSTAR,MEAN_MOTION_DOT,MEAN_MOTION_DDOT
STARLINK-37933,2026-133AA,2026-07-11T22:00:03.000096,15.35380078,.00013776,53.1586,200.0606,107.5365,196.0469,0,U,69532,999,585,.15220033E-2,.5305E-3,0
STARLINK-37890,2026-133AB,2026-07-11T22:00:03.000096,15.34363565,.00013563,53.1580,199.9840,98.9769,240.7588,0,U,69533,999,585,.15767581E-2,.53214E-3,0
STARLINK-37407,2026-133AC,2026-07-11T22:00:03.000096,15.33527676,.0001257,53.1584,199.8339,98.1806,314.6704,0,U,69534,999,590,.15240973E-2,.50053E-3,0
STARLINK-37888,2026-133AD,2026-07-11T22:00:03.000096,15.34365432,.00014294,53.1580,199.8855,72.3691,313.8961,0,U,69535,999,585,.15336078E-2,.5174E-3,0
STARLINK-37889,2026-133AE,2026-07-11T10:20:18.484800,15.49343632,.0001859,53.1560,202.6291,94.3949,265.7273,0,U,69536,999,584,.54605988E-3,.30076E-3,0
2026-134A,2026-134A,2026-07-11T18:49:40.970208,15.09443273,.00158096,97.7009,262.9853,181.9675,178.1494,0,U,69538,999,402,.17308133E-3,.2711E-4,0
2026-134B,2026-134B,2026-07-11T18:45:42.445728,15.09599918,.00159232,97.6984,262.9806,184.4090,175.7001,0,U,69539,999,401,.17001812E-3,.2673E-4,0
2026-134C,2026-134C,2026-07-11T21:55:47.885952,15.09632917,.00153727,97.6990,263.1165,185.0748,175.0327,0,U,69540,999,403,.17193342E-3,.2706E-4,0
2026-134D,2026-134D,2026-07-11T18:43:26.783904,15.09689490,.00163664,97.7028,262.9977,185.2121,174.8940,0,U,69541,999,401,.16219556E-3,.2554E-4,0
2026-134E,2026-134E,2026-07-11T18:42:53.377344,15.09711299,.00161028,97.7046,263.0044,185.9420,174.1621,0,U,69542,999,401,.16486177E-3,.2598E-4,0
2026-134F,2026-134F,2026-07-11T18:41:43.651680,15.09756555,.00153839,97.6999,262.9899,187.5478,172.5521,0,U,69543,999,401,.15978605E-3,.2519E-4,0
2026-134G,2026-134G,2026-07-11T23:25:53.877792,15.09842605,.00158749,97.7042,263.2063,187.9178,172.1803,0,U,69544,999,404,.17740927E-3,.2811E-4,0
2026-134H,2026-134H,2026-07-11T18:37:55.121088,15.09908151,.00156894,97.7027,263.0032,189.8050,170.2875,0,U,69545,999,400,.16178573E-3,.2562E-4,0
STARLINK-37880,2026-135A,2026-07-11T22:00:03.000096,15.49169434,.0000724,97.2846,221.1814,85.6793,325.4020,0,U,69546,999,528,.11872933E-2,.64973E-3,0
STARLINK-37881,2026-135B,2026-07-11T22:00:03.000096,15.57180919,.00022426,97.2849,221.2658,109.0636,138.8496,0,U,69547,999,528,-.38626825E-1,-.2446568E-1,0
STARLINK-37265,2026-135C,2026-07-11T22:00:03.000096,15.65857347,.00011999,97.2841,221.3203,84.8675,285.5784,0,U,69548,999,528,-.27951183E-1,-.247573E-1,0
STARLINK-37871,2026-135D,2026-07-11T22:00:03.000096,15.54772938,.00017174,97.2852,221.2601,81.0085,147.3359,0,U,69549,999,528,-.38045734E-1,-.2231454E-1,0
STARLINK-37865,2026-135E,2026-07-11T22:00:03.000096,15.56088970,.00013305,97.2854,221.2710,92.0979,161.5043,0,U,69550,999,528,-.37891983E-1,-.232067E-1,0
STARLINK-37862,2026-135F,2026-07-11T22:00:03.000096,15.62952825,.00013189,97.2840,221.3041,96.0124,241.9733,0,U,69551,999,528,-.84529961E-2,-.701483E-2,0
STARLINK-37861,2026-135G,2026-07-11T22:00:03.000096,15.58253718,.00016045,97.2843,221.2919,81.2324,222.7833,0,U,69552,999,528,-.35624487E-1,-.2361055E-1,0
STARLINK-37859,2026-135H,2026-07-11T22:00:03.000096,15.60411063,.00015862,97.2843,221.3000,102.7246,222.5813,0,U,69553,999,528,-.3115107E-1,-.2255757E-1,0
STARLINK-37860,2026-135J,2026-07-11T22:00:03.000096,15.63767199,.00010762,97.2840,221.3298,77.8786,312.4159,0,U,69554,999,528,-.30698707E-1,-.249777E-1,0
STARLINK-37858,2026-135K,2026-07-11T22:00:03.000096,15.62702098,.00015051,97.2840,221.3169,80.1050,288.2320,0,U,69555,999,528,-.31876671E-1,-.2488741E-1,0
STARLINK-37927,2026-135L,2026-07-11T22:00:03.000096,15.56219865,.00015999,97.2842,221.2870,101.3613,198.5725,0,U,69556,999,528,-.40326412E-1,-.2461061E-1,0
STARLINK-37929,2026-135M,2026-07-11T22:00:03.000096,15.51225530,.0002414,97.2849,221.2558,69.3881,149.0746,0,U,69557,999,528,-.53273434E-1,-.2732328E-1,0
STARLINK-37954,2026-135N,2026-07-11T22:00:03.000096,15.51425966,.00019591,97.2844,221.2566,87.3938,137.5756,0,U,69558,999,528,-.52160512E-1,-.2698744E-1,0
STARLINK-37958,2026-135P,2026-07-09T08:31:58.095264,15.80710505,.00014208,97.2842,218.6737,185.9739,174.1513,0,U,69559,999,376,.27486559E-3,.52572E-3,0
STARLINK-37950,2026-135Q,2026-07-11T22:00:03.000096,15.62077008,.0001179,97.2844,221.3321,56.6835,339.0522,0,U,69560,999,528,-.24876153E-1,-.1920739E-1,0
STARLINK-37952,2026-135R,2026-07-11T22:00:03.000096,15.55904600,.00018584,97.2841,221.2997,113.1176,215.5075,0,U,69561,999,528,-.40709035E-1,-.2456393E-1,0
STARLINK-37935,2026-135S,2026-07-11T22:00:03.000096,15.49778476,.00021712,97.2849,221.2612,66.4392,169.3240,0,U,69562,999,528,-.1761409E-1,-.88956E-2,0
