STARLINK-37933          
1 69532U 26133AA  26192.91670139  .00053050  00000+0  15220-2 0  9990
2 69532  53.1586 200.0606 0001377 107.5365 196.0469 15.35380078  5857
STARLINK-37890          
1 69533U 26133AB  26192.91670139  .00053214  00000+0  15768-2 0  9990
2 69533  53.1580 199.9840 0001356  98.9769 240.7588 15.34363565  5856
STARLINK-37407          
1 69534U 26133AC  26192.91670139  .00050053  00000+0  15241-2 0  9995
2 69534  53.1584 199.8339 0001257  98.1806 314.6704 15.33527676  5908
STARLINK-37888          
1 69535U 26133AD  26192.91670139  .00051740  00000+0  15336-2 0  9995
2 69535  53.1580 199.8855 0001429  72.3691 313.8961 15.34365432  5856
STARLINK-37889          
1 69536U 26133AE  26192.43076950  .00030076  00000+0  54606-3 0  9997
2 69536  53.1560 202.6291 0001859  94.3949 265.7273 15.49343632  5843
2026-134A               
1 69538U 26134A   26192.78450197  .00002711  00000+0  17308-3 0  9990
2 69538  97.7009 262.9853 0015809 181.9675 178.1494 15.09443273  4028
2026-134B               
1 69539U 26134B   26192.78174127  .00002673  00000+0  17002-3 0  9995
2 69539  97.6984 262.9806 0015923 184.4090 175.7001 15.09599918  4018
2026-134C               
1 69540U 26134C   26192.91374868  .00002706  00000+0  17193-3 0  9994
2 69540  97.6990 263.1165 0015372 185.0748 175.0327 15.09632917  4036
2026-134D               
1 69541U 26134D   26192.78017111  .00002554  00000+0  16220-3 0  9996
2 69541  97.7028 262.9977 0016366 185.2121 174.8940 15.09689490  4013
2026-134E               
1 69542U 26134E   26192.77978446  .00002598  00000+0  16486-3 0  9995
2 69542  97.7046 263.0044 0016102 185.9420 174.1621 15.09711299  4010
2026-134F               
1 69543U 26134F   26192.77897745  .00002519  00000+0  15979-3 0  9997
2 69543  97.6999 262.9899 0015383 187.5478 172.5521 15.09756555  4019
2026-134G               
1 69544U 26134G   26192.97631803  .00002811  00000+0  17741-3 0  9995
2 69544  97.7042 263.2063 0015874 187.9178 172.1803 15.09842605  4047
2026-134H               
1 69545U 26134H   26192.77633242  .00002562  00000+0  16179-3 0  9990
2 69545  97.7027 263.0032 0015689 189.8050 170.2875 15.09908151  4002
STARLINK-37880          
1 69546U 26135A   26192.91670139  .00064973  00000+0  11873-2 0  9993
2 69546  97.2846 221.1814 0000724  85.6793 325.4020 15.49169434  5285
STARLINK-37881          
1 69547U 26135B   26192.91670139 -.02446568  00000+0 -38627-1 0  9997
2 69547  97.2849 221.2658 0002242 109.0636 138.8496 15.57180919  5283
STARLINK-37265          
1 69548U 26135C   26192.91670139 -.02475730  00000+0 -27951-1 0  9999
2 69548  97.2841 221.3203 0001199  84.8675 285.5784 15.65857347  5281
STARLINK-37871          
1 69549U 26135D   26192.91670139 -.02231454  00000+0 -38046-1 0  9990
2 69549  97.2852 221.2601 0001717  81.0085 147.3359 15.54772938  5288
STARLINK-37865          
1 69550U 26135E   26192.91670139 -.02320670  00000+0 -37892-1 0  9999
2 69550  97.2854 221.2710 0001330  92.0979 161.5043 15.56088970  5284
STARLINK-37862          
1 69551U 26135F   26192.91670139 -.00701483  00000+0 -84530-2 0  9995
2 69551  97.2840 221.3041 0001318  96.0124 241.9733 15.62952825  5285
STARLINK-37861          
1 69552U 26135G   26192.91670139 -.02361055  00000+0 -35624-1 0  9994
2 69552  97.2843 221.2919 0001604  81.2324 222.7833 15.58253718  5286
STARLINK-37859          
1 69553U 26135H   26192.91670139 -.02255757  00000+0 -31151-1 0  9997
2 69553  97.2843 221.3000 0001586 102.7246 222.5813 15.60411063  5288
STARLINK-37860          
1 69554U 26135J   26192.91670139 -.02497770  00000+0 -30699-1 0  9997
2 69554  97.2840 221.3298 0001076  77.8786 312.4159 15.63767199  5289
STARLINK-37858          
1 69555U 26135K   26192.91670139 -.02488741  00000+0 -31877-1 0  9995
2 69555  97.2840 221.3169 0001505  80.1050 288.2320 15.62702098  5281
STARLINK-37927          
1 69556U 26135L   26192.91670139 -.02461061  00000+0 -40326-1 0  9991
2 69556  97.2842 221.2870 0001599 101.3613 198.5725 15.56219865  5286
STARLINK-37929          
1 69557U 26135M   26192.91670139 -.02732328  00000+0 -53273-1 0  9994
2 69557  97.2849 221.2558 0002414  69.3881 149.0746 15.51225530  5289
STARLINK-37954          
1 69558U 26135N   26192.91670139 -.02698744  00000+0 -52161-1 0  9993
2 69558  97.2844 221.2566 0001959  87.3938 137.5756 15.51425966  5288
STARLINK-37958          
1 69559U 26135P   26190.35553351  .00052572  00000+0  27487-3 0  9990
2 69559  97.2842 218.6737 0001420 185.9739 174.1513 15.80710505  3761
STARLINK-37950          
1 69560U 26135Q   26192.91670139 -.01920739  00000+0 -24876-1 0  9999
2 69560  97.2844 221.3321 0001179  56.6835 339.0522 15.62077008  5282
STARLINK-37952          
1 69561U 26135R   26192.91670139 -.02456393  00000+0 -40709-1 0  9994
2 69561  97.2841 221.2997 0001858 113.1176 215.5075 15.55904600  5289
STARLINK-37935          
1 69562U 26135S   26192.91670139 -.00889560  00000+0 -17614-1 0  9998
2 69562  97.2849 221.2612 0002171  66.4392 169.3240 15.49778476  5284
